ONEWEB-0056             
1 45159U 20008AE  24321.49632048 -.00000622  00000+0 -18176-2 0  9998
2 45159  87.8894 151.3012 0001646  91.2938 268.8378 13.10373634233283
ONEWEB-0057             
1 45160U 20008AF  24321.27390308 -.00000024  00000+0 -10628-3 0  9997
2 45160  87.8900 151.3510 0001640  86.9053 273.2262 13.10376917232669
ONEWEB-0058             
1 45161U 20008AG  24321.26075846 -.00000563  00000+0 -16492-2 0  9996
2 45161  87.8893 151.3798 0001540  82.3564 277.7738 13.10374516232733
ONEWEB-0059             
1 45162U 20008AH  24321.25728962 -.00000266  00000+0 -79724-3 0  9998
2 45162  87.8894 151.3676 0001514  81.0884 279.0415 13.10369425232631
ONEWEB-0062             
1 45163U 20008AJ  24320.97843241  .00000598  00000+0  16778-2 0  9990
2 45163  87.8894 151.4056 0001277  76.4635 283.6635 13.10376916232462
ONEWEB-0065             
1 45164U 20008AK  24321.26226780 -.00000570  00000+0 -16692-2 0  9994
2 45164  87.8900 151.3625 0001602  90.9699 269.1611 13.10371948232198
ONEWEB-0066             
1 45424U 20020A   24321.19865720 -.00000175  00000+0 -52975-3 0  9998
2 45424  87.8883 136.2204 0001920  83.9885 276.1461 13.11415276226923
ONEWEB-0067             
1 45425U 20020B   24321.46498914  .00000140  00000+0  35941-3 0  9990
2 45425  87.8869 136.1099 0001809  89.9148 270.2188 13.11420227227028
